{
  "type": "FeatureCollection",
  "features": [
    {
      "type": "Feature",
      "properties": {
        "norad_id": 30565,
        "name": "FENGYUN 1C DEB",
        "group": "fengyun-1c-debris",
        "lat": -1.9731296440875552,
        "lon": 42.38788652835256,
        "alt_km": 957.6469279631847,
        "timestamp": "2025-12-18T19:29:52.821679+00:00",
        "meta_object_name": "FENGYUN 1C DEB",
        "meta_object_id": "1999-025ALF",
        "meta_epoch": "2025-12-14T14:17:13.563168",
        "meta_mean_motion": 14.09950974,
        "meta_eccentricity": 0.01431996,
        "meta_inclination": 98.4595,
        "meta_ra_of_asc_node": 218.7147,
        "meta_arg_of_pericenter": 350.7343,
        "meta_mean_anomaly": 38.2595,
        "meta_ephemeris_type": 0,
        "meta_classification_type": "U",
        "meta_norad_cat_id": 30565,
        "meta_element_set_no": 999,
        "meta_rev_at_epoch": 95953,
        "meta_bstar": 0.0017219835,
        "meta_mean_motion_dot": 3.298e-05,
        "meta_mean_motion_ddot": 0,
        "tle_line1": "1 30565U 99025ALF 25348.59529587  .00003298  00000+0  17220-2 0  9991",
        "tle_line2": "2 30565  98.4595 218.7147 0143199 350.7343  38.2595 14.09950974959534"
      },
      "geometry": {
        "type": "Point",
        "coordinates": [
          42.38788652835256,
          -1.9731296440875552
        ]
      }
    },
    {
      "type": "Feature",
      "properties": {
        "norad_id": 30566,
        "name": "FENGYUN 1C DEB",
        "group": "fengyun-1c-debris",
        "lat": 18.623145237505955,
        "lon": -135.34949624251564,
        "alt_km": 804.3378415663747,
        "timestamp": "2025-12-18T19:29:52.821689+00:00",
        "meta_object_name": "FENGYUN 1C DEB",
        "meta_object_id": "1999-025ALG",
        "meta_epoch": "2025-12-18T02:02:38.677632",
        "meta_mean_motion": 14.11712192,
        "meta_eccentricity": 0.00684415,
        "meta_inclination": 99.2165,
        "meta_ra_of_asc_node": 40.7673,
        "meta_arg_of_pericenter": 167.4693,
        "meta_mean_anomaly": 259.6491,
        "meta_ephemeris_type": 0,
        "meta_classification_type": "U",
        "meta_norad_cat_id": 30566,
        "meta_element_set_no": 999,
        "meta_rev_at_epoch": 96458,
        "meta_bstar": 0.001202132,
        "meta_mean_motion_dot": 2.191e-05,
        "meta_mean_motion_ddot": 0,
        "tle_line1": "1 30566U 99025ALG 25352.08516988  .00002191  00000+0  12021-2 0  9997",
        "tle_line2": "2 30566  99.2165  40.7673 0068441 167.4693 259.6491 14.11712192964587"
      },
      "geometry": {
        "type": "Point",
        "coordinates": [
          -135.34949624251564,
          18.623145237505955
        ]
      }
    },
    {
      "type": "Feature",
      "properties": {
        "norad_id": 30567,
        "name": "FENGYUN 1C DEB",
        "group": "fengyun-1c-debris",
        "lat": 54.80954929297623,
        "lon": -29.31335095755765,
        "alt_km": 892.1470322002233,
        "timestamp": "2025-12-18T19:29:52.821699+00:00",
        "meta_object_name": "FENGYUN 1C DEB",
        "meta_object_id": "1999-025ALH",
        "meta_epoch": "2025-12-18T06:11:59.949600",
        "meta_mean_motion": 14.08903958,
        "meta_eccentricity": 0.01089847,
        "meta_inclination": 98.7756,
        "meta_ra_of_asc_node": 342.8005,
        "meta_arg_of_pericenter": 173.6998,
        "meta_mean_anomaly": 314.4881,
        "meta_ephemeris_type": 0,
        "meta_classification_type": "U",
        "meta_norad_cat_id": 30567,
        "meta_element_set_no": 999,
        "meta_rev_at_epoch": 96851,
        "meta_bstar": 0.00014342711,
        "meta_mean_motion_dot": 2.19e-06,
        "meta_mean_motion_ddot": 0,
        "tle_line1": "1 30567U 99025ALH 25352.25833275  .00000219  00000+0  14343-3 0  9997",
        "tle_line2": "2 30567  98.7756 342.8005 0108984 173.6998 314.4881 14.08903958968515"
      },
      "geometry": {
        "type": "Point",
        "coordinates": [
          -29.31335095755765,
          54.80954929297623
        ]
      }
    },
    {
      "type": "Feature",
      "properties": {
        "norad_id": 30568,
        "name": "FENGYUN 1C DEB",
        "group": "fengyun-1c-debris",
        "lat": -51.47405274026334,
        "lon": -27.985635344228356,
        "alt_km": 708.8793687777797,
        "timestamp": "2025-12-18T19:29:52.821709+00:00",
        "meta_object_name": "FENGYUN 1C DEB",
        "meta_object_id": "1999-025ALJ",
        "meta_epoch": "2025-12-18T06:02:54.470112",
        "meta_mean_motion": 14.55301806,
        "meta_eccentricity": 0.00160379,
        "meta_inclination": 98.9417,
        "meta_ra_of_asc_node": 162.8205,
        "meta_arg_of_pericenter": 178.0098,
        "meta_mean_anomaly": 359.8407,
        "meta_ephemeris_type": 0,
        "meta_classification_type": "U",
        "meta_norad_cat_id": 30568,
        "meta_element_set_no": 999,
        "meta_rev_at_epoch": 97739,
        "meta_bstar": 0.002813129,
        "meta_mean_motion_dot": 0.00012183,
        "meta_mean_motion_ddot": 0,
        "tle_line1": "1 30568U 99025ALJ 25352.25201933  .00012183  00000+0  28131-2 0  9990",
        "tle_line2": "2 30568  98.9417 162.8205 0016037 178.0098 359.8407 14.55301806977390"
      },
      "geometry": {
        "type": "Point",
        "coordinates": [
          -27.985635344228356,
          -51.47405274026334
        ]
      }
    },
    {
      "type": "Feature",
      "properties": {
        "norad_id": 30569,
        "name": "FENGYUN 1C DEB",
        "group": "fengyun-1c-debris",
        "lat": -71.66241172562765,
        "lon": 159.8986698031574,
        "alt_km": 659.1872657432468,
        "timestamp": "2025-12-18T19:29:52.821719+00:00",
        "meta_object_name": "FENGYUN 1C DEB",
        "meta_object_id": "1999-025ALK",
        "meta_epoch": "2025-12-17T22:39:06.463584",
        "meta_mean_motion": 14.73891442,
        "meta_eccentricity": 0.00060417,
        "meta_inclination": 98.7368,
        "meta_ra_of_asc_node": 131.3198,
        "meta_arg_of_pericenter": 70.7502,
        "meta_mean_anomaly": 289.4357,
        "meta_ephemeris_type": 0,
        "meta_classification_type": "U",
        "meta_norad_cat_id": 30569,
        "meta_element_set_no": 999,
        "meta_rev_at_epoch": 98283,
        "meta_bstar": 0.0025773453,
        "meta_mean_motion_dot": 0.00016883,
        "meta_mean_motion_ddot": 0,
        "tle_line1": "1 30569U 99025ALK 25351.94382481  .00016883  00000+0  25773-2 0  9994",
        "tle_line2": "2 30569  98.7368 131.3198 0006041  70.7502 289.4357 14.73891442982835"
      },
      "geometry": {
        "type": "Point",
        "coordinates": [
          159.8986698031574,
          -71.66241172562765
        ]
      }
    },
    {
      "type": "Feature",
      "properties": {
        "norad_id": 30570,
        "name": "FENGYUN 1C DEB",
        "group": "fengyun-1c-debris",
        "lat": -57.011185496564536,
        "lon": 38.851413057134415,
        "alt_km": 859.4405225552146,
        "timestamp": "2025-12-18T19:29:52.821729+00:00",
        "meta_object_name": "FENGYUN 1C DEB",
        "meta_object_id": "1999-025ALL",
        "meta_epoch": "2025-12-18T01:23:50.459424",
        "meta_mean_motion": 14.14278089,
        "meta_eccentricity": 0.0035529,
        "meta_inclination": 98.7145,
        "meta_ra_of_asc_node": 24.4486,
        "meta_arg_of_pericenter": 196.6652,
        "meta_mean_anomaly": 227.2014,
        "meta_ephemeris_type": 0,
        "meta_classification_type": "U",
        "meta_norad_cat_id": 30570,
        "meta_element_set_no": 999,
        "meta_rev_at_epoch": 97073,
        "meta_bstar": 0.00040163375,
        "meta_mean_motion_dot": 7.29e-06,
        "meta_mean_motion_ddot": 0,
        "tle_line1": "1 30570U 99025ALL 25352.05822291  .00000729  00000+0  40163-3 0  9990",
        "tle_line2": "2 30570  98.7145  24.4486 0035529 196.6652 227.2014 14.14278089970736"
      },
      "geometry": {
        "type": "Point",
        "coordinates": [
          38.851413057134415,
          -57.011185496564536
        ]
      }
    },
    {
      "type": "Feature",
      "properties": {
        "norad_id": 30571,
        "name": "FENGYUN 1C DEB",
        "group": "fengyun-1c-debris",
        "lat": 19.858507506196112,
        "lon": -157.96545592731846,
        "alt_km": 848.5575684893638,
        "timestamp": "2025-12-18T19:29:52.821739+00:00",
        "meta_object_name": "FENGYUN 1C DEB",
        "meta_object_id": "1999-025ALM",
        "meta_epoch": "2025-12-18T02:00:43.210944",
        "meta_mean_motion": 14.10700688,
        "meta_eccentricity": 0.00209933,
        "meta_inclination": 98.7307,
        "meta_ra_of_asc_node": 18.1452,
        "meta_arg_of_pericenter": 218.278,
        "meta_mean_anomaly": 203.6515,
        "meta_ephemeris_type": 0,
        "meta_classification_type": "U",
        "meta_norad_cat_id": 30571,
        "meta_element_set_no": 999,
        "meta_rev_at_epoch": 96962,
        "meta_bstar": 0.00026280272,
        "meta_mean_motion_dot": 4.28e-06,
        "meta_mean_motion_ddot": 0,
        "tle_line1": "1 30571U 99025ALM 25352.08383346  .00000428  00000+0  26280-3 0  9997",
        "tle_line2": "2 30571  98.7307  18.1452 0020993 218.2780 203.6515 14.10700688969623"
      },
      "geometry": {
        "type": "Point",
        "coordinates": [
          -157.96545592731846,
          19.858507506196112
        ]
      }
    }
  ]
}